STARLINK-4675           
1 53601U 22104P   26068.73445182  .00000843  00000+0  71025-4 0  9993
2 53601  53.2157 243.7750 0001138  90.1206 269.9916 15.08838402195623
LEMUR-2-UNTITLED-SC     
1 63351U 25061A   26068.89211098  .00005783  00000+0  33296-3 0  9990
2 63351  97.5556  45.0864 0017373 245.6030 114.3388 15.12695529 52577
