[{"OBJECT_NAME":"STARLINK-4675","OBJECT_ID":"2022-104P","EPOCH":"2026-03-09T17:37:36.637248","MEAN_MOTION":15.08838402,"ECCENTRICITY":0.00011377,"INCLINATION":53.2157,"RA_OF_ASC_NODE":243.775,"ARG_OF_PERICENTER":90.1206,"MEAN_ANOMALY":269.9916,"EPHEMERIS_TYPE":0,"CLASSIFICATION_TYPE":"U","NORAD_CAT_ID":53601,"ELEMENT_SET_NO":999,"REV_AT_EPOCH":19562,"BSTAR":7.1024646e-5,"MEAN_MOTION_DOT":8.43e-6,"MEAN_MOTION_DDOT":0},{"OBJECT_NAME":"LEMUR-2-UNTITLED-SC","OBJECT_ID":"2025-061A","EPOCH":"2026-03-09T21:24:38.388672","MEAN_MOTION":15.12695529,"ECCENTRICITY":0.00173727,"INCLINATION":97.5556,"RA_OF_ASC_NODE":45.0864,"ARG_OF_PERICENTER":245.603,"MEAN_ANOMALY":114.3388,"EPHEMERIS_TYPE":0,"CLASSIFICATION_TYPE":"U","NORAD_CAT_ID":63351,"ELEMENT_SET_NO":999,"REV_AT_EPOCH":5257,"BSTAR":0.00033295729,"MEAN_MOTION_DOT":5.783e-5,"MEAN_MOTION_DDOT":0}]
